IRIDIUM 155             
1 43573U 18061E   22066.15673610  .00000204  00000+0  65600-4 0  9999
2 43573  86.4021 349.9041 0002498  81.5832 278.5647 14.34220592189330
IRIDIUM 154             
1 43574U 18061F   22066.27725500  .00000210  00000+0  67948-4 0  9993
2 43574  86.4024 349.9125 0001944  91.4197 268.7222 14.34219668189394
IRIDIUM 163             
1 43575U 18061G   22065.83960862  .00000208  00000+0  67367-4 0  9999
2 43575  86.4023 350.0584 0001799  76.3067 283.8329 14.34219083189300
IRIDIUM 156             
1 43576U 18061H   22066.16309109  .00000197  00000+0  63266-4 0  9999
2 43576  86.4022 349.9287 0002150  75.4410 284.7024 14.34219411189331
IRIDIUM 164             
1 43577U 18061J   22066.28359499  .00000212  00000+0  68605-4 0  9990
2 43577  86.4023 349.8948 0001864  87.5061 272.6348 14.34218051189405
IRIDIUM 159             
1 43578U 18061K   22065.76350353  .00000215  00000+0  69725-4 0  9990
2 43578  86.4021 350.0817 0001946  88.2929 271.8490 14.34214651189293
IRIDIUM 180             
1 43922U 19002A   22065.69323223  .00000169  00000+0  53456-4 0  9999
2 43922  86.3930 286.9698 0001392 102.0431 258.0921 14.34218212164898
IRIDIUM 176             
1 43923U 19002B   22066.30946034  .00000540  00000+0  81723-4 0  9991
2 43923  86.6065 286.7470 0002457  90.0143 270.1355 14.72259354169307
IRIDIUM 168             
1 43924U 19002C   22065.68687165  .00000169  00000+0  53289-4 0  9992
2 43924  86.3933 287.0056 0001894  94.9219 265.2193 14.34218608164871
IRIDIUM 173             
1 43925U 19002D   22066.16257390  .00000162  00000+0  50803-4 0  9992
2 43925  86.3929 286.7592 0001871  91.9059 268.2351 14.34220169164933
IRIDIUM 169             
1 43926U 19002E   22066.12533517  .00000233  00000+0  69747-4 0  9993
2 43926  86.4239 318.3919 0006830  88.0399 272.1581 14.38618643165503
IRIDIUM 172             
1 43927U 19002F   22065.66785784  .00000175  00000+0  55566-4 0  9996
2 43927  86.3930 286.9694 0001795  93.6669 266.4732 14.34219476164867
IRIDIUM 175             
1 43928U 19002G   22066.09934945  .00000533  00000+0  80604-4 0  9999
2 43928  86.6067 286.6620 0001934  90.8269 269.3170 14.72257546169267
IRIDIUM 171             
1 43929U 19002H   22066.13720284  .00000161  00000+0  50268-4 0  9994
2 43929  86.3940 286.9057 0001904  94.6390 265.5023 14.34220942164927
IRIDIUM 170             
1 43930U 19002J   22065.70395162  .00000554  00000+0  83973-4 0  9996
2 43930  86.6065 287.0060 0002334  92.6686 267.4798 14.72258779169229
IRIDIUM 167             
1 43931U 19002K   22066.47966987  .00000169  00000+0  53190-4 0  9991
2 43931  86.3930 286.6381 0001666 100.5361 259.6023 14.34223788164976
